CCSDS_OMM_VERS,COMMENT,CREATION_DATE,ORIGINATOR,OBJECT_NAME,OBJECT_ID,CENTER_NAME,REF_FRAME,TIME_SYSTEM,MEAN_ELEMENT_THEORY,EPOCH,MEAN_MOTION,ECCENTRICITY,INCLINATION,RA_OF_ASC_NODE,ARG_OF_PERICENTER,MEAN_ANOMALY,EPHEMERIS_TYPE,CLASSIFICATION_TYPE,NORAD_CAT_ID,ELEMENT_SET_NO,REV_AT_EPOCH,BSTAR,MEAN_MOTION_DOT,MEAN_MOTION_DDOT,SEMIMAJOR_AXIS,PERIOD,APOAPSIS,PERIAPSIS,OBJECT_TYPE,RCS_SIZE,COUNTRY_CODE,LAUNCH_DATE,SITE,DECAY_DATE,FILE,GP_ID,TLE_LINE0,TLE_LINE1,TLE_LINE2
"2.0","GENERATED VIA SPACE-TRACK.ORG API","2020-04-07T06:36:09","18 SPCS","ORBCOMM FM 30","1999-065A","EARTH","TEME","UTC","SGP4","2020-04-07T02:33:21.828960","14.32863521","0.00072130","45.0343","22.8145","287.8037","72.2023","0","U","25980","999","6265","0.00008915500000","0.00000105","0.0000000000000","7160.312","100.498","787.341","777.012","PAYLOAD","MEDIUM","ORB","1999-12-04","AFETR","","2729870","151747891","0 ORBCOMM FM 30","1 25980U 99065A   20098.10650265  .00000105  00000-0  89155-4 0  9995","2 25980  45.0343  22.8145 0007213 287.8037  72.2023 14.32863521 62655"
"2.0","GENERATED VIA SPACE-TRACK.ORG API","2020-04-07T01:31:45","18 SPCS","ORBCOMM FM 30","1999-065A","EARTH","TEME","UTC","SGP4","2020-04-06T18:11:21.421248","14.32863445","0.00072420","45.0343","24.4527","286.2736","73.7314","0","U","25980","999","6207","0.00009362000000","0.00000117","0.0000000000000","7160.312","100.498","787.362","776.991","PAYLOAD","MEDIUM","ORB","1999-12-04","AFETR","","2729827","151733913","0 ORBCOMM FM 30","1 25980U 99065A   20097.75788682 +.00000117 +00000-0 +93620-4 0  9995","2 25980 045.0343 024.4527 0007242 286.2736 073.7314 14.32863445062078"
"2.0","GENERATED VIA SPACE-TRACK.ORG API","2020-04-06T18:43:07","18 SPCS","ORBCOMM FM 30","1999-065A","EARTH","TEME","UTC","SGP4","2020-04-06T11:29:45.101472","14.32863322","0.00072510","45.0343","25.7633","285.0459","74.9585","0","U","25980","999","6203","0.00009283400000","0.00000115","0.0000000000000","7160.312","100.498","787.369","776.985","PAYLOAD","MEDIUM","ORB","1999-12-04","AFETR","","2729621","151709399","0 ORBCOMM FM 30","1 25980U 99065A   20097.47899423 +.00000115 +00000-0 +92834-4 0  9994","2 25980 045.0343 025.7633 0007251 285.0459 074.9585 14.32863322062032"
"2.0","GENERATED VIA SPACE-TRACK.ORG API","2020-04-06T06:36:08","18 SPCS","ORBCOMM FM 30","1999-065A","EARTH","TEME","UTC","SGP4","2020-04-05T22:06:32.455872","14.32863085","0.00072760","45.0343","28.3843","282.5441","77.4591","0","U","25980","999","6248","0.00009394600000","0.00000118","0.0000000000000","7160.313","100.498","787.388","776.968","PAYLOAD","MEDIUM","ORB","1999-12-04","AFETR","","2729394","151697021","0 ORBCOMM FM 30","1 25980U 99065A   20096.92120898  .00000118  00000-0  93946-4 0  9994","2 25980  45.0343  28.3843 0007276 282.5441  77.4591 14.32863085 62484"
"2.0","GENERATED VIA SPACE-TRACK.ORG API","2020-04-06T02:34:34","18 SPCS","ORBCOMM FM 30","1999-065A","EARTH","TEME","UTC","SGP4","2020-04-05T12:04:07.971456","14.32862883","0.00072910","45.0343","30.3503","280.7362","79.2664","0","U","25980","999","6189","0.00009268700000","0.00000115","0.0000000000000","7160.314","100.498","787.399","776.958","PAYLOAD","MEDIUM","ORB","1999-12-04","AFETR","","2729307","151682106","0 ORBCOMM FM 30","1 25980U 99065A   20096.50287004 +.00000115 +00000-0 +92687-4 0  9999","2 25980 045.0343 030.3503 0007291 280.7362 079.2664 14.32862883061899"
"2.0","GENERATED VIA SPACE-TRACK.ORG API","2020-04-05T16:25:13","18 SPCS","ORBCOMM FM 30","1999-065A","EARTH","TEME","UTC","SGP4","2020-04-05T07:02:55.729248","14.32862791","0.00072960","45.0342","31.3332","279.8014","80.2008","0","U","25980","999","6186","0.00009371500000","0.00000117","0.0000000000000","7160.314","100.498","787.403","776.955","PAYLOAD","MEDIUM","ORB","1999-12-04","AFETR","","2729125","151638089","0 ORBCOMM FM 30","1 25980U 99065A   20096.29370057 +.00000117 +00000-0 +93715-4 0  9991","2 25980 045.0342 031.3332 0007296 279.8014 080.2008 14.32862791061866"
"2.0","GENERATED VIA SPACE-TRACK.ORG API","2020-04-04T23:16:08","18 SPCS","ORBCOMM FM 30","1999-065A","EARTH","TEME","UTC","SGP4","2020-04-04T12:38:30.829344","14.32862317","0.00073240","45.0342","34.9372","276.4449","83.5564","0","U","25980","999","6228","0.00008461300000","0.00000092","0.0000000000000","7160.316","100.498","787.425","776.936","PAYLOAD","MEDIUM","ORB","1999-12-04","AFETR","","2728855","151604775","0 ORBCOMM FM 30","1 25980U 99065A   20095.52674571  .00000092  00000-0  84613-4 0  9993","2 25980  45.0342  34.9372 0007324 276.4449  83.5564 14.32862317 62280"
"2.0","GENERATED VIA SPACE-TRACK.ORG API","2020-04-04T16:46:21","18 SPCS","ORBCOMM FM 30","1999-065A","EARTH","TEME","UTC","SGP4","2020-04-04T04:16:30.414720","14.32862135","0.00073370","45.0342","36.5754","274.8737","85.1272","0","U","25980","999","6170","0.00008292700000","0.00000088","0.0000000000000","7160.316","100.498","787.435","776.928","PAYLOAD","MEDIUM","ORB","1999-12-04","AFETR","","2728706","151588481","0 ORBCOMM FM 30","1 25980U 99065A   20095.17812980 +.00000088 +00000-0 +82927-4 0  9993","2 25980 045.0342 036.5754 0007337 274.8737 085.1272 14.32862135061706"
"2.0","GENERATED VIA SPACE-TRACK.ORG API","2020-04-03T14:26:09","18 SPCS","ORBCOMM FM 30","1999-065A","EARTH","TEME","UTC","SGP4","2020-04-03T08:11:41.402688","14.32861720","0.00073530","45.0341","40.5070","271.2013","88.7991","0","U","25980","999","6211","0.00007836400000","0.00000075","0.0000000000000","7160.318","100.498","787.448","776.918","PAYLOAD","MEDIUM","ORB","1999-12-04","AFETR","","2728017","151525135","0 ORBCOMM FM 30","1 25980U 99065A   20094.34145142  .00000075  00000-0  78364-4 0  9996","2 25980  45.0341  40.5070 0007353 271.2013  88.7991 14.32861720 62119"
"2.0","GENERATED VIA SPACE-TRACK.ORG API","2020-04-03T18:22:24","18 SPCS","CZ-4 DEB","1999-057SK","EARTH","TEME","UTC","SGP4","2020-04-03T06:31:27.153984","14.46762170","0.01171680","98.7072","106.7223","53.5189","3.3824","0","U","35331","999","32853","0.00016974000000","0.00000617","0.0000000000000","7114.380","99.532","819.603","652.887","DEBRIS","SMALL","PRC","1999-10-14","TSC","","2728165","151541064","0 CZ-4 DEB","1 35331U 99057SK  20094.27184206 +.00000617 +00000-0 +16974-3 0  9994","2 35331 098.7072 106.7223 0117168 053.5189 003.3824 14.46762170328535"
"2.0","GENERATED VIA SPACE-TRACK.ORG API","2020-04-03T02:02:19","18 SPCS","ORBCOMM FM 30","1999-065A","EARTH","TEME","UTC","SGP4","2020-04-02T13:47:16.461312","14.32861317","0.00073700","45.0340","44.1109","267.8018","92.1985","0","U","25980","999","6147","0.00007306700000","0.00000061","0.0000000000000","7160.319","100.498","787.461","776.907","PAYLOAD","MEDIUM","ORB","1999-12-04","AFETR","","2727751","151505722","0 ORBCOMM FM 30","1 25980U 99065A   20093.57449608 +.00000061 +00000-0 +73067-4 0  9994","2 25980 045.0340 044.1109 0007370 267.8018 092.1985 14.32861317061478"
"2.0","GENERATED VIA SPACE-TRACK.ORG API","2020-04-02T18:11:05","18 SPCS","CZ-4 DEB","1999-057SK","EARTH","TEME","UTC","SGP4","2020-04-02T05:39:04.155264","14.46760655","0.01172350","98.7073","105.6569","56.5984","5.6152","0","U","35331","999","32838","0.00016234000000","0.00000588","0.0000000000000","7114.385","99.532","819.655","652.844","DEBRIS","SMALL","PRC","1999-10-14","TSC","","2727577","151487194","0 CZ-4 DEB","1 35331U 99057SK  20093.23546476 +.00000588 +00000-0 +16234-3 0  9996","2 35331 098.7073 105.6569 0117235 056.5984 005.6152 14.46760655328386"
"2.0","GENERATED VIA SPACE-TRACK.ORG API","2020-04-02T11:26:08","18 SPCS","CZ-4 DEB","1999-057SK","EARTH","TEME","UTC","SGP4","2020-04-02T05:39:04.155264","14.46760655","0.01172350","98.7073","105.6569","56.5984","5.6152","0","U","35331","999","90615","0.00016234000000","0.00000588","0.0000000000000","7114.385","99.532","819.655","652.844","DEBRIS","SMALL","PRC","1999-10-14","TSC","","2727427","151471022","0 CZ-4 DEB","1 35331U 99057SK  20093.23546476  .00000588  00000-0  16234-3 0  9996","2 35331  98.7073 105.6569 0117235  56.5984   5.6152 14.46760655906153"
"2.0","GENERATED VIA SPACE-TRACK.ORG API","2020-04-02T18:11:05","18 SPCS","ORBCOMM FM 30","1999-065A","EARTH","TEME","UTC","SGP4","2020-04-01T14:21:39.258720","14.32860741","0.00073770","45.0338","48.6978","263.5069","96.4938","0","U","25980","999","6133","0.00006548000000","0.00000040","0.0000000000000","7160.321","100.498","787.468","776.904","PAYLOAD","MEDIUM","ORB","1999-12-04","AFETR","","2727577","151481950","0 ORBCOMM FM 30","1 25980U 99065A   20092.59837105 +.00000040 +00000-0 +65480-4 0  9995","2 25980 045.0338 048.6978 0007377 263.5069 096.4938 14.32860741061334"
"2.0","GENERATED VIA SPACE-TRACK.ORG API","2020-04-01T16:48:54","18 SPCS","ORBCOMM FM 30","1999-065A","EARTH","TEME","UTC","SGP4","2020-04-01T05:59:38.825952","14.32860518","0.00073830","45.0337","50.3360","261.9287","98.0722","0","U","25980","999","6128","0.00006238800000","0.00000031","0.0000000000000","7160.322","100.498","787.473","776.900","PAYLOAD","MEDIUM","ORB","1999-12-04","AFETR","","2727089","151450290","0 ORBCOMM FM 30","1 25980U 99065A   20092.24975493 +.00000031 +00000-0 +62388-4 0  9994","2 25980 045.0337 050.3360 0007383 261.9287 098.0722 14.32860518061284"
"2.0","GENERATED VIA SPACE-TRACK.ORG API","2020-03-31T02:39:23","18 SPCS","CZ-4 DEB","1999-057SK","EARTH","TEME","UTC","SGP4","2020-03-30T19:50:18.152736","14.46757579","0.01173260","98.7074","103.1804","63.7787","59.5103","0","U","35331","999","32803","0.00015901000000","0.00000575","0.0000000000000","7114.395","99.532","819.730","652.790","DEBRIS","SMALL","PRC","1999-10-14","TSC","","2726475","151381436","0 CZ-4 DEB","1 35331U 99057SK  20090.82659899 +.00000575 +00000-0 +15901-3 0  9998","2 35331 098.7074 103.1804 0117326 063.7787 059.5103 14.46757579328031"
